NORAD_CAT_ID,OBJECT_NAME,OBJECT_TYPE,EPOCH,MEAN_MOTION,ECCENTRICITY,INCLINATION,RA_OF_ASC_NODE,ARG_OF_PERICENTER,MEAN_ANOMALY,BSTAR,MEAN_MOTION_DOT,MEAN_MOTION_DDOT,TLE_LINE0,TLE_LINE1,TLE_LINE2,SEMIMAJOR_AXIS,PERIOD,APOGEE,PERIGEE,DECAYED
52700.0,STARLINK-4034,PAYLOAD,2024-07-25 10:24:27,15.08845472,0.0001151,53.2176,287.5103,93.4223,266.6901,0.00065694,0.00010184,0.0,0 STARLINK-4034,1 52700U 22053AW  24207.43364698  .00010184  00000-0  65694-3 0  9991,2 52700  53.2176 287.5103 0001151  93.4223 266.6901 15.08845472121274,6917.864,95.437,540.525,538.932,0.0
52700.0,STARLINK-4034,PAYLOAD,2024-07-26 13:25:58,15.08844878,0.0001163,53.216,282.4506,79.3368,280.7755,-0.00039254,-6.53e-05,0.0,0 STARLINK-4034,1 52700U 22053AW  24208.55970543 -.00006530  00000-0 -39254-3 0  9992,2 52700  53.2160 282.4506 0001163  79.3368 280.7755 15.08844878121851,6917.865,95.437,540.535,538.926,0.0
52700.0,STARLINK-4034,PAYLOAD,2024-07-26 15:01:21,15.08844091,0.0001292,53.2168,282.1546,92.4891,267.625,-0.00034864,-5.833e-05,0.0,0 STARLINK-4034,1 52700U 22053AW  24208.62594575 -.00005833  00000-0 -34864-3 0  9994,2 52700  53.2168 282.1546 0001292  92.4891 267.6250 15.08844091121457,6917.868,95.437,540.627,538.839,0.0
52700.0,STARLINK-4034,PAYLOAD,2024-07-27 10:06:00,15.08828338,0.000134,53.2155,278.5848,86.2157,273.8988,-0.00040871,-6.785e-05,0.0,0 STARLINK-4034,1 52700U 22053AW  24209.42083563 -.00006785  00000-0 -40871-3 0  9995,2 52700  53.2155 278.5848 0001340  86.2157 273.8988 15.08828338121573,6917.916,95.438,540.708,538.854,0.0
52700.0,STARLINK-4034,PAYLOAD,2024-07-27 14:52:09,15.08828246,0.0001501,53.2158,277.6925,96.3202,263.7961,-0.0002499,-4.262e-05,0.0,0 STARLINK-4034,1 52700U 22053AW  24209.61955787 -.00004262  00000-0 -24990-3 0  9994,2 52700  53.2158 277.6925 0001501  96.3202 263.7961 15.08828246122011,6917.916,95.438,540.82,538.743,0.0
52700.0,STARLINK-4034,PAYLOAD,2024-07-28 11:32:11,15.08835213,0.0001447,53.2145,273.8282,96.1556,263.96,0.0003658,5.538e-05,0.0,0 STARLINK-4034,1 52700U 22053AW  24210.48068535  .00005538  00000-0  36580-3 0  9990,2 52700  53.2145 273.8282 0001447  96.1556 263.9600 15.08835213121732,6917.895,95.438,540.761,538.759,0.0
52700.0,STARLINK-4034,PAYLOAD,2024-07-29 12:58:20,15.08864688,0.0001432,53.2144,269.0711,87.4102,272.7054,0.00067395,0.00010461,0.0,0 STARLINK-4034,1 52700U 22053AW  24211.54051628  .00010461  00000-0  67395-3 0  9992,2 52700  53.2144 269.0711 0001432  87.4102 272.7054 15.08864688121895,6917.805,95.436,540.661,538.679,0.0
52700.0,STARLINK-4034,PAYLOAD,2024-07-29 20:55:16,15.08849613,0.0002082,53.2144,267.5842,80.8842,279.2385,0.0002009,2.911e-05,0.0,0 STARLINK-4034,1 52700U 22053AW  24211.87172047  .00002911  00000-0  20090-3 0  9999,2 52700  53.2144 267.5842 0002082  80.8842 279.2385 15.08849613121949,6917.851,95.437,541.156,538.276,0.0
52700.0,STARLINK-4034,PAYLOAD,2024-07-30 09:38:21,15.08837901,0.0001488,53.2152,265.2071,83.6523,276.4638,-2.9991e-05,-7.65e-06,0.0,0 STARLINK-4034,1 52700U 22053AW  24212.40164257 -.00000765  00000-0 -29991-4 0  9990,2 52700  53.2152 265.2071 0001488  83.6523 276.4638 15.08837901122020,6917.887,95.438,540.781,538.722,0.0
52700.0,STARLINK-4034,PAYLOAD,2024-07-30 20:46:04,15.0884304,0.0001265,53.2136,263.1238,81.9073,278.2063,0.00093898,0.00014689,0.0,0 STARLINK-4034,1 52700U 22053AW  24212.86532417  .00014689  00000-0  93898-3 0  9991,2 52700  53.2136 263.1238 0001265  81.9073 278.2063 15.08843040122504,6917.871,95.437,540.611,538.861,0.0
52700.0,STARLINK-4034,PAYLOAD,2024-07-31 12:39:55,15.08858863,0.0001338,53.2144,260.1496,81.3407,278.7737,0.0010106,0.00015841,0.0,0 STARLINK-4034,1 52700U 22053AW  24213.52772112  .00015841  00000-0  10106-2 0  9994,2 52700  53.2144 260.1496 0001338  81.3407 278.7737 15.08858863122199,6917.823,95.436,540.613,538.762,0.0
52700.0,STARLINK-4034,PAYLOAD,2024-07-31 20:36:50,15.08847973,0.00014,53.2152,258.661,99.7504,260.3647,0.00066866,0.00010372,0.0,0 STARLINK-4034,1 52700U 22053AW  24213.85892350  .00010372  00000-0  66866-3 0  9996,2 52700  53.2152 258.6610 0001400  99.7504 260.3647 15.08847973122242,6917.856,95.437,540.69,538.753,0.0
52700.0,STARLINK-4034,PAYLOAD,2024-08-01 09:19:56,15.08853081,0.0001796,53.2143,256.2837,92.8481,267.2717,0.00086463,0.00013504,0.0,0 STARLINK-4034,1 52700U 22053AW  24214.38884513  .00013504  00000-0  86463-3 0  9992,2 52700  53.2143 256.2837 0001796  92.8481 267.2717 15.08853081122323,6917.84,95.437,540.948,538.463,0.0
52700.0,STARLINK-4034,PAYLOAD,2024-08-02 12:21:29,15.08846967,0.0001415,53.215,251.2292,82.5265,277.5888,0.00020626,2.997e-05,0.0,0 STARLINK-4034,1 52700U 22053AW  24215.51492649  .00002997  00000-0  20626-3 0  9996,2 52700  53.2150 251.2292 0001415  82.5265 277.5888 15.08846967122491,6917.859,95.437,540.703,538.745,0.0
52700.0,STARLINK-4034,PAYLOAD,2024-08-03 12:12:17,15.08842727,0.0001387,53.2137,246.7665,84.3364,275.7787,0.0001443,2.01e-05,0.0,0 STARLINK-4034,1 52700U 22053AW  24216.50853022  .00002010  00000-0  14430-3 0  9994,2 52700  53.2137 246.7665 0001387  84.3364 275.7787 15.08842727122642,6917.872,95.437,540.697,538.778,0.0
52700.0,STARLINK-4034,PAYLOAD,2024-08-03 18:33:49,15.08841912,0.000136,53.2136,245.5769,84.018,276.0967,0.00015462,2.174e-05,0.0,0 STARLINK-4034,1 52700U 22053AW  24216.77349071  .00002174  00000-0  15462-3 0  9994,2 52700  53.2136 245.5769 0001360  84.0180 276.0967 15.08841912123096,6917.875,95.437,540.68,538.799,0.0
52700.0,STARLINK-4034,PAYLOAD,2024-08-04 05:41:31,15.08836502,0.0001504,53.2144,243.4957,87.0749,273.0415,4.4766e-05,4.24e-06,0.0,0 STARLINK-4034,1 52700U 22053AW  24217.23717418  .00000424  00000-0  44766-4 0  9996,2 52700  53.2144 243.4957 0001504  87.0749 273.0415 15.08836502122751,6917.891,95.438,540.797,538.716,0.0
52700.0,STARLINK-4034,PAYLOAD,2024-08-04 08:52:17,15.08840561,0.0001457,53.214,242.9024,87.752,272.3639,6.1706e-05,6.94e-06,0.0,0 STARLINK-4034,1 52700U 22053AW  24217.36965198  .00000694  00000-0  61706-4 0  9992,2 52700  53.2140 242.9024 0001457  87.7520 272.3639 15.08840561123185,6917.879,95.438,540.752,538.736,0.0
52700.0,STARLINK-4034,PAYLOAD,2024-08-05 05:32:18,15.08843081,0.0001439,53.2136,239.0364,89.7602,270.3555,0.00011092,1.478e-05,0.0,0 STARLINK-4034,1 52700U 22053AW  24218.23077125  .00001478  00000-0  11092-3 0  9996,2 52700  53.2136 239.0364 0001439  89.7602 270.3555 15.08843081122901,6917.871,95.437,540.731,538.74,0.0
52700.0,STARLINK-4034,PAYLOAD,2024-08-06 05:23:06,15.08826533,0.0001411,53.2138,234.5762,87.6329,272.4824,-7.4939e-05,-1.48e-05,0.0,0 STARLINK-4034,1 52700U 22053AW  24219.22438215 -.00001480  00000-0 -74939-4 0  9992,2 52700  53.2138 234.5762 0001411  87.6329 272.4824 15.08826533123050,6917.922,95.438,540.763,538.81,0.0
52700.0,STARLINK-4034,PAYLOAD,2024-08-06 08:33:53,15.08829125,0.0001372,53.2149,233.9812,88.207,271.9079,-1.9853e-06,-3.19e-06,0.0,0 STARLINK-4034,1 52700U 22053AW  24219.35686648 -.00000319  00000-0 -19853-5 0  9996,2 52700  53.2149 233.9812 0001372  88.2070 271.9079 15.08829125123480,6917.914,95.438,540.728,538.829,0.0
52700.0,STARLINK-4034,PAYLOAD,2024-08-06 18:06:11,15.08834737,0.0001364,53.215,232.1972,95.4322,264.6826,4.2296e-05,3.85e-06,0.0,0 STARLINK-4034,1 52700U 22053AW  24219.75430296  .00000385  00000-0  42296-4 0  9993,2 52700  53.2150 232.1972 0001364  95.4322 264.6826 15.08834737123542,6917.896,95.438,540.705,538.818,0.0
52700.0,STARLINK-4034,PAYLOAD,2024-08-07 00:27:44,15.08839856,0.0001327,53.2148,231.0071,96.6379,263.4764,5.2234e-05,5.43e-06,0.0,0 STARLINK-4034,1 52700U 22053AW  24220.01925958  .00000543  00000-0  52234-4 0  9997,2 52700  53.2148 231.0071 0001327  96.6379 263.4764 15.08839856123175,6917.881,95.438,540.664,538.828,0.0
52700.0,STARLINK-4034,PAYLOAD,2024-08-08 05:04:40,15.0884116,0.0001346,53.2149,225.6525,98.3804,261.7341,0.00017298,2.466e-05,0.0,0 STARLINK-4034,1 52700U 22053AW  24221.21157838  .00002466  00000-0  17298-3 0  9990,2 52700  53.2149 225.6525 0001346  98.3804 261.7341 15.08841160123760,6917.877,95.437,540.673,538.811,0.0
52700.0,STARLINK-4034,PAYLOAD,2024-08-09 04:55:26,15.08855837,0.0001457,53.2159,221.1937,94.5525,265.5633,0.00017226,2.456e-05,0.0,0 STARLINK-4034,1 52700U 22053AW  24222.20516812  .00002456  00000-0  17226-3 0  9991,2 52700  53.2159 221.1937 0001457  94.5525 265.5633 15.08855837123504,6917.832,95.437,540.705,538.689,0.0
52700.0,STARLINK-4034,PAYLOAD,2024-08-09 06:30:49,15.08853493,0.0001356,53.2155,220.8952,98.7713,261.3433,0.00027648,4.117e-05,0.0,0 STARLINK-4034,1 52700U 22053AW  24222.27140780  .00004117  00000-0  27648-3 0  9990,2 52700  53.2155 220.8952 0001356  98.7713 261.3433 15.08853493123920,6917.839,95.437,540.642,538.766,0.0
52700.0,STARLINK-4034,PAYLOAD,2024-08-10 03:10:51,15.08828642,0.000143,53.2164,217.0333,87.3719,272.7437,-0.00022261,-3.828e-05,0.0,0 STARLINK-4034,1 52700U 22053AW  24223.13253898 -.00003828  00000-0 -22261-3 0  9997,2 52700  53.2164 217.0333 0001430  87.3719 272.7437 15.08828642123641,6917.915,95.438,540.769,538.791,0.0
52700.0,STARLINK-4034,PAYLOAD,2024-08-11 03:01:37,15.08841887,0.0001481,53.2152,212.5654,103.0162,257.0995,-7.1692e-05,-1.429e-05,0.0,0 STARLINK-4034,1 52700U 22053AW  24224.12613349 -.00001429  00000-0 -71692-4 0  9996,2 52700  53.2152 212.5654 0001481 103.0162 257.0995 15.08841887123795,6917.875,95.437,540.764,538.715,0.0
52700.0,STARLINK-4034,PAYLOAD,2024-08-11 06:12:23,15.08849614,0.0001517,53.2158,211.9751,99.0842,261.0322,0.00010191,1.335e-05,0.0,0 STARLINK-4034,1 52700U 22053AW  24224.25861034  .00001335  00000-0  10191-3 0  9996,2 52700  53.2158 211.9751 0001517  99.0842 261.0322 15.08849614123819,6917.851,95.437,540.765,538.667,0.0
52700.0,STARLINK-4034,PAYLOAD,2024-08-12 04:27:48,15.08840779,0.000188,53.2165,207.8176,113.7843,246.3347,0.00017463,2.492e-05,0.0,0 STARLINK-4034,1 52700U 22053AW  24225.18597744  .00002492  00000-0  17463-3 0  9997,2 52700  53.2165 207.8176 0001880 113.7843 246.3347 15.08840779123951,6917.878,95.438,541.044,538.442,0.0
